IRIDIUM 106             
1 41917U 17003A   25348.90660012  .00000047  00000+0  97357-5 0  9995
2 41917  86.3985 165.5492 0002341  99.0444 261.1017 14.34217921466799
IRIDIUM 103             
1 41918U 17003B   25348.89390981  .00000168  00000+0  52953-4 0  9995
2 41918  86.3985 165.4548 0001626  97.3550 262.7831 14.34214223466811
IRIDIUM 109             
1 41919U 17003C   25348.90026577  .00000121  00000+0  36229-4 0  9992
2 41919  86.3987 165.5087 0001879  92.6726 267.4684 14.34220356466784
IRIDIUM 102             
1 41920U 17003D   25348.86854158  .00000071  00000+0  18174-4 0  9996
2 41920  86.3986 165.4497 0002004  87.9953 272.1472 14.34217699466862
IRIDIUM 105             
1 41921U 17003E   25348.90904845  .00000375  00000+0  12682-3 0  9995
2 41921  86.3978 133.9252 0001894  95.0371 265.1041 14.34219030468725
IRIDIUM 104             
1 41922U 17003F   25348.88122743  .00000075  00000+0  19808-4 0  9997
2 41922  86.3986 165.4840 0001653  86.7972 273.3413 14.34218173466858
IRIDIUM 114             
1 41923U 17003G   25348.88756081  .00000066  00000+0  16618-4 0  9992
2 41923  86.3986 165.4652 0001786  90.4780 269.6621 14.34216919466839
IRIDIUM 108             
1 41924U 17003H   25348.91586253  .00000275  00000+0  91107-4 0  9997
2 41924  86.3970 133.8123 0002105  90.1091 270.0346 14.34216672468695
